{"type":"FeatureCollection","features":[{"type":"Feature","geometry":{"type":"Point","coordinates":[4.6132,50.7778]},"properties":{"uid":"wocat_966_dhp_41959","startdate":"2020-06-05","wocat_id":966,"dhp_label":41959,"country":"BE"},"bbox":[4.6132,50.7778,4.6132,50.7778]},{"type":"Feature","geometry":{"type":"Point","coordinates":[33.44333,37.60944]},"properties":{"uid":"wocat_995_dhp_83259","startdate":"2023-02-05","wocat_id":995,"dhp_label":83259,"country":"TR"},"bbox":[33.44333,37.60944,33.44333,37.60944]},{"type":"Feature","geometry":{"type":"Point","coordinates":[7.4667,46.8667]},"properties":{"uid":"wocat_1007_dhp_28028","startdate":"2018-10-27","wocat_id":1007,"dhp_label":28028,"country":"CH"},"bbox":[7.4667,46.8667,7.4667,46.8667]},{"type":"Feature","geometry":{"type":"Point","coordinates":[30.39583,39.325]},"properties":{"uid":"wocat_1015_dhp_55953","startdate":"2021-05-31","wocat_id":1015,"dhp_label":55953,"country":"TR"},"bbox":[30.39583,39.325,30.39583,39.325]},{"type":"Feature","geometry":{"type":"Point","coordinates":[7.1354,47.0865]},"properties":{"uid":"wocat_1018_dhp_75567","startdate":"2022-08-18","wocat_id":1018,"dhp_label":75567,"country":"CH"},"bbox":[7.1354,47.0865,7.1354,47.0865]},{"type":"Feature","geometry":{"type":"Point","coordinates":[7.2808,46.1633]},"properties":{"uid":"wocat_1136_dhp_32935","startdate":"2019-07-27","wocat_id":1136,"dhp_label":32935,"country":"CH"},"bbox":[7.2808,46.1633,7.2808,46.1633]},{"type":"Feature","geometry":{"type":"Point","coordinates":[11.958484,45.30459]},"properties":{"uid":"wocat_1225_dhp_79923","startdate":"2022-11-04","wocat_id":1225,"dhp_label":79923,"country":"IT"},"bbox":[11.958484,45.30459,11.958484,45.30459]},{"type":"Feature","geometry":{"type":"Point","coordinates":[6.603388,52.101994]},"properties":{"uid":"wocat_1248_dhp_76972","startdate":"2022-09-08","wocat_id":1248,"dhp_label":76972,"country":"NL"},"bbox":[6.603388,52.101994,6.603388,52.101994]},{"type":"Feature","geometry":{"type":"Point","coordinates":[-20.400494,63.833206]},"properties":{"uid":"wocat_1261_dhp_82683","startdate":"2023-01-20","wocat_id":1261,"dhp_label":82683,"country":"IS"},"bbox":[-20.400494,63.833206,-20.400494,63.833206]},{"type":"Feature","geometry":{"type":"Point","coordinates":[17.42939,60.024796]},"properties":{"uid":"wocat_1286_dhp_90224","startdate":"2023-07-02","wocat_id":1286,"dhp_label":90224,"country":"SE"},"bbox":[17.42939,60.024796,17.42939,60.024796]},{"type":"Feature","geometry":{"type":"Point","coordinates":[7.078057,53.446674]},"properties":{"uid":"wocat_1582_dhp_77027","startdate":"2022-09-08","wocat_id":1582,"dhp_label":77027,"country":"DE"},"bbox":[7.078057,53.446674,7.078057,53.446674]},{"type":"Feature","geometry":{"type":"Point","coordinates":[-1.1115834,39.128345]},"properties":{"uid":"wocat_1586_dhp_29780","startdate":"2019-03-31","wocat_id":1586,"dhp_label":29780,"country":"ES"},"bbox":[-1.1115834,39.128345,-1.1115834,39.128345]},{"type":"Feature","geometry":{"type":"Point","coordinates":[-1.3866036,38.39914]},"properties":{"uid":"wocat_2690_dhp_86806","startdate":"2023-05-12","wocat_id":2690,"dhp_label":86806,"country":"ES"},"bbox":[-1.3866036,38.39914,-1.3866036,38.39914]},{"type":"Feature","geometry":{"type":"Point","coordinates":[27.581026,45.39616]},"properties":{"uid":"wocat_2950_dhp_100770","startdate":"2023-11-04","wocat_id":2950,"dhp_label":100770,"country":"RO"},"bbox":[27.581026,45.39616,27.581026,45.39616]},{"type":"Feature","geometry":{"type":"Point","coordinates":[-1.1099435,48.07268]},"properties":{"uid":"wocat_3164_dhp_75505","startdate":"2022-08-14","wocat_id":3164,"dhp_label":75505,"country":"FR"},"bbox":[-1.1099435,48.07268,-1.1099435,48.07268]},{"type":"Feature","geometry":{"type":"Point","coordinates":[18.733055,44.423054]},"properties":{"uid":"wocat_4126_dhp_75508","startdate":"2022-08-13","wocat_id":4126,"dhp_label":75508,"country":"BA"},"bbox":[18.733055,44.423054,18.733055,44.423054]},{"type":"Feature","geometry":{"type":"Point","coordinates":[-2.3297822,47.917625]},"properties":{"uid":"wocat_5681_dhp_34896","startdate":"2019-09-23","wocat_id":5681,"dhp_label":34896,"country":"FR"},"bbox":[-2.3297822,47.917625,-2.3297822,47.917625]},{"type":"Feature","geometry":{"type":"Point","coordinates":[5.0176144,50.036922]},"properties":{"uid":"wocat_5925_dhp_75678","startdate":"2022-08-16","wocat_id":5925,"dhp_label":75678,"country":"BE"},"bbox":[5.0176144,50.036922,5.0176144,50.036922]},{"type":"Feature","geometry":{"type":"Point","coordinates":[15.639173,46.63365]},"properties":{"uid":"wocat_5933_dhp_68907","startdate":"2022-03-31","wocat_id":5933,"dhp_label":68907,"country":"SI"},"bbox":[15.639173,46.63365,15.639173,46.63365]},{"type":"Feature","geometry":{"type":"Point","coordinates":[18.727436,52.59696]},"properties":{"uid":"wocat_6250_dhp_26585","startdate":"2018-08-24","wocat_id":6250,"dhp_label":26585,"country":"PL"},"bbox":[18.727436,52.59696,18.727436,52.59696]},{"type":"Feature","geometry":{"type":"Point","coordinates":[3.8183,51.43884]},"properties":{"uid":"wocat_6820_dhp_76886","startdate":"2022-09-05","wocat_id":6820,"dhp_label":76886,"country":"NL"},"bbox":[3.8183,51.43884,3.8183,51.43884]}]}